*******************************************************************************
 Revised: April 12, 2021                Venus                           299 / 2
 
 PHYSICAL DATA (updated 2020-Oct-19):
  Vol. Mean Radius (km) =  6051.84+-0.01 Density (g/cm^3)      =  5.204
  Mass x10^23 (kg)      =    48.685      Volume (x10^10 km^3)  = 92.843
  Sidereal rot. period  =   243.018484 d Sid. Rot. Rate (rad/s)= -0.00000029924
  Mean solar day        =   116.7490 d   Equ. gravity  m/s^2   =  8.870
  Mom. of Inertia       =     0.33       Core radius (km)      = ~3200
  Geometric Albedo      =     0.65       Potential Love # k2   = ~0.25
  GM (km^3/s^2)         = 324858.592     Equatorial Radius, Re = 6051.893 km
  GM 1-sigma (km^3/s^2) =    +-0.006     Mass ratio (Sun/Venus)= 408523.72
  Atmos. pressure (bar) =  90            Max. angular diam.    =   60.2"
  Mean Temperature (K)  = 735            Visual mag. V(1,0)    =   -4.40
  Obliquity to orbit    = 177.3 deg      Hill's sphere rad.,Rp =  167.1
  Sidereal orb. per., y =   0.61519726   Orbit speed, km/s     =   35.021
  Sidereal orb. per., d = 224.70079922   Escape speed, km/s    =   10.361
                                 Perihelion  Aphelion    Mean
  Solar Constant (W/m^2)         2759         2614       2650
  Maximum Planetary IR (W/m^2)    153         153         153
  Minimum Planetary IR (W/m^2)    153         153         153
*******************************************************************************


*******************************************************************************
Ephemeris / WWW_USER Sat Feb 25 12:25:20 2023 Pasadena, USA      / Horizons
*******************************************************************************
Target body name: Venus Barycenter (299)          {source: DE441}
Center body name: Solar System Barycenter (0)     {source: DE441}
Center-site name: BODY CENTER
*******************************************************************************
Start time      : A.D. 2022-Feb-25 00:00:00.0000 TDB
Stop  time      : A.D. 2054-Mar-27 00:00:00.0000 TDB
Step-size       : 1440 minutes
*******************************************************************************
Center geodetic : 0.0, 0.0, 0.0                   {E-lon(deg),Lat(deg),Alt(km)}
Center cylindric: 0.0, 0.0, 0.0                   {E-lon(deg),Dxy(km),Dz(km)}
Center radii    : (undefined)
Output units    : KM-S
Calendar mode   : Mixed Julian/Gregorian
Output type     : GEOMETRIC cartesian states
Output format   : 3 (position, velocity, LT, range, range-rate)
Reference frame : Ecliptic of J2000.0
*******************************************************************************
            JDTDB,            Calendar Date (TDB),                      X,                      Y,                      Z,                     VX,                     VY,                     VZ,                     LT,                     RG,                     RR,
**************************************************************************************************************************************************************************************************************************************************************************
$$SOE
2463210.500000000, A.D. 2031-Dec-10 00:00:00.0000, -9.508204329735695E+07,  5.078207381235782E+07,  6.172673903478302E+06, -1.666651939734160E+01, -3.105712787191417E+01,  5.341309750955343E-01,  3.601490760628005E+02,  1.079699767592959E+08,  1.003832326283400E-01,
2463211.500000000, A.D. 2031-Dec-11 00:00:00.0000, -9.648411927981934E+07,  4.807893097911499E+07,  6.216363128944358E+06, -1.578681894175376E+01, -3.151145239929224E+01,  4.771284926571386E-01,  3.601783650997114E+02,  1.079787573916639E+08,  1.028570906505218E-01,
2463212.500000000, A.D. 2031-Dec-12 00:00:00.0000, -9.780964895013215E+07,  4.533762057207660E+07,  6.255111111221762E+06, -1.489473477316375E+01, -3.194057853541720E+01,  4.197581099400196E-01,  3.602083539817815E+02,  1.079877478323323E+08,  1.052395546971647E-01,
2463213.500000000, A.D. 2031-Dec-13 00:00:00.0000, -9.905759379228242E+07,  4.256033445213904E+07,  6.288888079921296E+06, -1.399099617539194E+01, -3.234416914934423E+01,  3.620665396579650E-01,  3.602390160694770E+02,  1.079969400949700E+08,  1.075285582525323E-01,
2463214.500000000, A.D. 2031-Dec-14 00:00:00.0000, -1.002269787002780E+08,  3.974929266955324E+07,  6.317668310785575E+06, -1.307634157637556E+01, -3.272190888326604E+01,  3.041007224603351E-01,  3.602703241401653E+02,  1.080063260184369E+08,  1.097221216570992E-01,
2463215.500000000, A.D. 2031-Dec-15 00:00:00.0000, -1.013168927388625E+08,  3.690674157201551E+07,  6.341430143542364E+06, -1.215151786796013E+01, -3.307350439657449E+01,  2.459077843217692E-01,  3.603022504134159E+02,  1.080158972743695E+08,  1.118183539460330E-01,
2463216.500000000, A.D. 2031-Dec-16 00:00:00.0000, -1.023264898451822E+08,  3.403495189267396E+07,  6.360155996074772E+06, -1.121727971938083E+01, -3.339868458668654E+01,  1.875349939079669E-01,  3.603347665768047E+02,  1.080256453749165E+08,  1.138154544935100E-01,
2463217.500000000, A.D. 2031-Dec-17 00:00:00.0000, -1.032549894708878E+08,  3.113621682005617E+07,  6.373832374908838E+06, -1.027438888508477E+01, -3.369720078675881E+01,  1.290297199633237E-01,  3.603678438121258E+02,  1.080355616805973E+08,  1.157117141403079E-01,
2463218.500000000, A.D. 2031-Dec-18 00:00:00.0000, -1.041016771642376E+08,  2.821285005192867E+07,  6.382449882021254E+06, -9.323613508219212E+00, -3.396882693983122E+01,  7.043938877171385E-02,  3.604014528219244E+02,  1.080456374082557E+08,  1.175055163400168E-01,
2463219.500000000, A.D. 2031-Dec-19 00:00:00.0000, -1.048659050918376E+08,  2.526718383510660E+07,  6.386003217978945E+06, -8.365727420083525E+00, -3.421335974993019E+01,  1.181144175675364E-02,  3.604355638562453E+02,  1.080558636390797E+08,  1.191953375952514E-01,
2463220.500000000, A.D. 2031-Dec-20 00:00:00.0000, -1.055470924997489E+08,  2.230156699322936E+07,  6.384491181419167E+06, -7.401509437151090E+00, -3.443061880958509E+01, -4.680670678890486E-02,  3.604701467395534E+02,  1.080662313266714E+08,  1.207797480626969E-01,
2463221.500000000, A.D. 2031-Dec-21 00:00:00.0000, -1.061447261137582E+08,  1.931836294451684E+07,  6.377916664887900E+06, -6.431742656032774E+00, -3.462044670420947E+01, -1.053677117402074E-01,  3.605051708977537E+02,  1.080767313051476E+08,  1.222574117605262E-01,
2463222.500000000, A.D. 2031-Dec-22 00:00:00.0000, -1.066583604786917E+08,  1.631994771151395E+07,  6.366286647056170E+06, -5.457213747621549E+00, -3.478270909318056E+01, -1.638243389380865E-01,  3.605406053852788E+02,  1.080873542972608E+08,  1.236270868411650E-01,
2463223.500000000, A.D. 2031-Dec-23 00:00:00.0000, -1.070876182367376E+08,  1.330870792483477E+07,  6.349612181337255E+06, -4.478712251262983E+00, -3.491729476766935E+01, -2.221295066940598E-01,  3.605764189122690E+02,  1.080980909225468E+08,  1.248876259554938E-01,
2463224.500000000, A.D. 2031-Dec-24 00:00:00.0000, -1.074321903448168E+08,  1.028703882291137E+07,  6.327908380932568E+06, -3.497029869779735E+00, -3.502411568531510E+01, -2.802363269476267E-01,  3.606125798718709E+02,  1.081089317055095E+08,  1.260379767131025E-01,
2463225.500000000, A.D. 2031-Dec-25 00:00:00.0000, -1.076918362311095E+08,  7.257342249742288E+06,  6.301194400338339E+06, -2.512959766161555E+00, -3.510310698188017E+01, -3.380981460252777E-01,  3.606490563676805E+02,  1.081198670838475E+08,  1.270771822246178E-01,
2463226.500000000, A.D. 2031-Dec-26 00:00:00.0000, -1.078663838909157E+08,  4.222024652622245E+06,  6.269493413349736E+06, -1.527295862715699E+00, -3.515422696006290E+01, -3.956685849521993E-01,  3.606858162413518E+02,  1.081308874167312E+08,  1.280043816977584E-01,
2463227.500000000, A.D. 2031-Dec-27 00:00:00.0000, -1.079557299220985E+08,  1.183495081817495E+06,  6.232832587603055E+06, -5.408321434559948E-01, -3.517745705568733E+01, -4.529015792698079E-01,  3.607228271003800E+02,  1.081419829931319E+08,  1.288188110486922E-01,
2463228.500000000, A.D. 2031-Dec-28 00:00:00.0000, -1.079598395004188E+08, -1.855836805869598E+06,  6.191243055700636E+06,  4.456380395077997E-01, -3.517280178153158E+01, -5.097514183144956E-01,  3.607600563460585E+02,  1.081531440402034E+08,  1.295198034853100E-01,
2463229.500000000, A.D. 2031-Dec-29 00:00:00.0000, -1.078787462951441E+08, -4.893562737727471E+06,  6.144759882966915E+06,  1.431322654835322E+00, -3.514028864909720E+01, -5.661727839153148E-01,  3.607974712015935E+02,  1.081643607317099E+08,  1.301067900194378E-01,
2463230.500000000, A.D. 2031-Dec-30 00:00:00.0000, -1.077125523253689E+08, -7.927277808062448E+06,  6.093422031887541E+06,  2.415431675347244E+00, -3.507996806866444E+01, -6.221207884701929E-01,  3.608350387403532E+02,  1.081756231964957E+08,  1.305792998710228E-01,
2463231.500000000, A.D. 2031-Dec-31 00:00:00.0000, -1.074614277575527E+08, -1.095458245156633E+07,  6.037272323286944E+06,  3.397177755231451E+00, -3.499191322801983E+01, -6.775510123628372E-01,  3.608727259142130E+02,  1.081869215269822E+08,  1.309369607392149E-01,
2463232.500000000, A.D. 2032-Jan-01 00:00:00.0000, -1.071256106448404E+08, -1.397308440529996E+07,  5.976357394302854E+06,  4.375776900368628E+00, -3.487621995028434E+01, -7.324195406843419E-01,  3.609104995819599E+02,  1.081982457876837E+08,  1.311794989329482E-01,
2463233.500000000, A.D. 2032-Jan-02 00:00:00.0000, -1.067054066087934E+08, -1.698040065749781E+07,  5.910727653218674E+06,  5.350449130897904E+00, -3.473300653099123E+01, -7.866829992472280E-01,  3.609483265377298E+02,  1.082095860237326E+08,  1.313067395203747E-01,
2463234.500000000, A.D. 2032-Jan-03 00:00:00.0000, -1.062011884642238E+08, -1.997415938142476E+07,  5.840437231217233E+06,  6.320419135741284E+00, -3.456241355528024E+01, -8.402985898167596E-01,  3.609861735394577E+02,  1.082209322694086E+08,  1.313186061588627E-01,
